[{"OBJECT_NAME":"STARLINK-34812","OBJECT_ID":"2025-232X","EPOCH":"2026-03-09T12:14:45.000384","MEAN_MOTION":15.30195578,"ECCENTRICITY":0.00012224,"INCLINATION":53.1585,"RA_OF_ASC_NODE":105.0533,"ARG_OF_PERICENTER":76.6476,"MEAN_ANOMALY":283.4661,"EPHEMERIS_TYPE":0,"CLASSIFICATION_TYPE":"U","NORAD_CAT_ID":66026,"ELEMENT_SET_NO":999,"REV_AT_EPOCH":2339,"BSTAR":0.00090441164,"MEAN_MOTION_DOT":0.00026519,"MEAN_MOTION_DDOT":0},{"OBJECT_NAME":"CZ-2C R\/B","OBJECT_ID":"2024-218A","EPOCH":"2026-03-09T22:16:31.791072","MEAN_MOTION":15.22960743,"ECCENTRICITY":0.00453409,"INCLINATION":97.5416,"RA_OF_ASC_NODE":83.973,"ARG_OF_PERICENTER":359.5317,"MEAN_ANOMALY":0.5869,"EPHEMERIS_TYPE":0,"CLASSIFICATION_TYPE":"U","NORAD_CAT_ID":62078,"ELEMENT_SET_NO":999,"REV_AT_EPOCH":7134,"BSTAR":0.00039378379,"MEAN_MOTION_DOT":9.445e-5,"MEAN_MOTION_DDOT":0}]
